{
  "last_updated": "2026-07-05T06:00:02.876415",
  "satellites": {
    "98592": {
      "name": "DUTHSat-2",
      "norad_id": "98592",
      "tle": "1 64530U 25135C   26185.55938654  .00023938  00000-0  89434-3 0  9997\n2 64530  97.4639 301.4679 0006069 124.9793 235.2016 15.27345357 57580",
      "epoch": "2026-07-04T13:25:30.997056",
      "fetched_at": "2026-07-05T06:00:03.019052",
      "source": "satnogs"
    },
    "98530": {
      "name": "LAMARR",
      "norad_id": "98530",
      "tle": "1 66673U 25276H   26026.90917087  .00034524  00000-0  16680-2 0  9998\n2 66673  97.4301 102.8338 0007597 141.5941 218.5835 15.18529012  8972",
      "epoch": "2026-01-26T21:49:12.363168",
      "fetched_at": "2026-01-28T06:00:02.884758",
      "source": "satnogs",
      "note": "Using previous TLE (fetch/manual failed today)"
    },
    "98529": {
      "name": "DIRAC",
      "norad_id": "98529",
      "tle": "1 66681U 25276R   26026.63281774  .00024563  00000-0  11745-2 0  9993\n2 66681  97.4280 102.5712 0006320 148.4115 211.7500 15.18972786  8932",
      "epoch": "2026-01-26T15:11:15.452736",
      "fetched_at": "2026-01-28T06:00:02.937152",
      "source": "satnogs",
      "note": "Using previous TLE (fetch/manual failed today)"
    },
    "98518": {
      "name": "MICE-1",
      "norad_id": "98518",
      "tle": "1 66684U 25276U   26184.71115629  .00004280  00000-0  20594-3 0  9992\n2 66684  97.4260 258.0650 0003816 304.1458  55.9415 15.19307660 32922",
      "epoch": "2026-07-03T17:04:03.903456",
      "fetched_at": "2026-07-05T06:00:03.201128",
      "source": "satnogs"
    },
    "68416": {
      "name": "PeakSat",
      "norad_id": "68416",
      "tle": "1 68416U 26067A   26185.60772090  .00012221  00000-0  57472-3 0  9995\n2 68416  97.4558 143.9714 0002218 152.5122 207.6230 15.19717694 14594",
      "epoch": "2026-07-04T14:35:07.085760",
      "fetched_at": "2026-07-05T06:00:03.259825",
      "source": "satnogs"
    },
    "98370": {
      "name": "OptiSat",
      "norad_id": "98370",
      "tle": "1 69696U 69696    26089.46895426  .00000000  00000-0  00000-0 0 00004\n2 69696 097.4414 038.3720 0003145 156.7651 191.1423 15.18459822000011",
      "epoch": "2026-03-30T11:15:17.648064",
      "fetched_at": "2026-04-17T12:47:18.541523",
      "source": "manual"
    },
    "68468": {
      "name": "ERMIS-1",
      "norad_id": "68468",
      "tle": "1 68468U 26067BE  26185.33117833  .00011473  00000-0  56689-3 0  9997\n2 68468  97.4559 143.4364 0006969  18.0645 342.0835 15.17993786 14536",
      "epoch": "2026-07-04T07:56:53.807712",
      "fetched_at": "2026-07-05T06:00:03.321797",
      "source": "satnogs"
    },
    "68420": {
      "name": "ERMIS-2",
      "norad_id": "68420",
      "tle": "1 68420U 26067E   26185.13989581  .00012405  00000-0  57731-3 0  9995\n2 68420  97.4488 143.4469 0002562 122.2131 237.9353 15.20074993 14524",
      "epoch": "2026-07-04T03:21:26.997984",
      "fetched_at": "2026-07-05T06:00:03.386417",
      "source": "satnogs"
    },
    "98367": {
      "name": "ERMIS-3",
      "norad_id": "98367",
      "tle": "1 68425U 26067K   26184.59118222  .00006460  00000-0  31214-3 0  9997\n2 68425  97.4598 142.9346 0000514  82.6206 277.5087 15.18975909 14434",
      "epoch": "2026-07-03T14:11:18.143808",
      "fetched_at": "2026-07-05T06:00:03.450565",
      "source": "satnogs"
    },
    "69021": {
      "name": "Helios",
      "norad_id": "69021",
      "tle": "1 69021U 26100AT  26185.02480813  .00008713  00000-0  40465-3 0  9996\n2 69021  97.4003  82.4812 0002849 302.0774  58.0184 15.20240054  9361",
      "epoch": "2026-07-04T00:35:43.422432",
      "fetched_at": "2026-07-05T06:00:03.505934",
      "source": "satnogs"
    },
    "69020": {
      "name": "Selene",
      "norad_id": "69020",
      "tle": "1 69020U 26100AS  26184.96397822  .00007483  00000-0  34989-3 0  9991\n2 69020  97.4021  82.4255 0002233 294.9332  65.1671 15.20054648  9358",
      "epoch": "2026-07-03T23:08:07.718208",
      "fetched_at": "2026-07-05T06:00:03.561140",
      "source": "satnogs"
    }
  },
  "fetch_log": []
}